      2.10          N: GNSS NAV DATA                        RINEX VERSION / TYPE
fic2rin                                 09/24/2023 00:18:16 PGM / RUN BY / DATE
                                                            END OF HEADER
3  23  9 23  2  0  0.0 -.120272859931D-03  .212594386539D-10  .000000000000D+00
     .100000000000D+02 -.109437500000D+03  .379730102997D-08  .285628386895D+01
    -.554881989956D-05  .511406734586D-02  .681355595589D-05  .515359938622D+04
     .525600000000D+06  .428408384323D-07  .129357532718D+01  .167638063431D-07
     .980448615437D+00  .255875000000D+03  .111328856539D+01 -.770282085341D-08
     .106433004790D-09  .100000000000D+01  .228000000000D+04  .000000000000D+00
     .240000000000D+01  .000000000000D+00  .186264514923D-08  .100000000000D+02
     .518400000000D+06  .400000000000D+01
2  23  9 23  2  0  0.0 -.550737138838D-03  .454747350886D-11  .000000000000D+00
     .550000000000D+02 -.587500000000D+01  .443589905872D-08  .457451769674D+00
    -.359490513802D-06  .159935136326D-01  .373832881451D-05  .515374860573D+04
     .525600000000D+06 -.171363353729D-06  .163017501008D+00 -.217929482460D-06
     .967856123824D+00  .319843750000D+03 -.134282011213D+01 -.851464038323D-08
    -.200365488884D-09  .100000000000D+01  .228000000000D+04  .000000000000D+00
     .240000000000D+01  .000000000000D+00 -.176951289177D-07  .550000000000D+02
     .518400000000D+06  .400000000000D+01
1  23  9 23  2  0  0.0  .164893455803D-03 -.795807864051D-12  .000000000000D+00
     .470000000000D+02 -.176562500000D+02  .376229957202D-08 -.222309024214D+01
    -.756233930588D-06  .128806316061D-01  .309757888317D-05  .515363862610D+04
     .525600000000D+06  .782310962677D-07  .264176018666D+00 -.931322574615D-07
     .990588497096D+00  .335843750000D+03  .993437522740D+00 -.778282418587D-08
    -.125005206969D-10  .100000000000D+01  .228000000000D+04  .000000000000D+00
     .240000000000D+01  .630000000000D+02  .512227416039D-08  .470000000000D+02
     .518400000000D+06  .400000000000D+01
5  23  9 23  2  0  0.0 -.143758486956D-03 -.147792889038D-11  .000000000000D+00
     .520000000000D+02 -.853437500000D+02  .416160191885D-08  .277644957667D+00
    -.429339706898D-05  .602081674151D-02  .604055821896D-05  .515373305893D+04
     .525600000000D+06 -.182539224625D-06  .124544635373D+01  .279396772385D-07
     .967480510830D+00  .268687500000D+03  .123001848988D+01 -.798104672835D-08
     .682171272315D-10  .100000000000D+01  .228000000000D+04  .000000000000D+00
     .240000000000D+01  .000000000000D+00 -.111758708954D-07  .520000000000D+02
     .518400000000D+06  .400000000000D+01
30 23  9 24  0  0  0.0 -.485048629344D-03  .352429196937D-11  .000000000000D+00
     .590000000000D+02  .154687500000D+02  .543129766392D-08  .225930848330D+01
     .869855284691D-06  .657710945234D-02  .751577317715D-05  .515375534630D+04
     .000000000000D+00 -.182539224625D-06 -.301162465759D+01 -.132247805595D-06
     .935826974916D+00  .223125000000D+03 -.254917718360D+01 -.825034365993D-08
     .333228166005D-09  .100000000000D+01  .228100000000D+04  .000000000000D+00
     .240000000000D+01  .000000000000D+00  .372529029846D-08  .590000000000D+02
    -.720000000000D+04  .400000000000D+01
15 23  9 24  0  0  0.0  .804378651083D-04  .363797880709D-11  .000000000000D+00
     .590000000000D+02 -.667187500000D+02  .491449042254D-08 -.210520603579D+01
    -.356324017048D-05  .154280347051D-01  .864453613758D-05  .515378240395D+04
     .000000000000D+00  .216066837311D-06  .207413089087D+01 -.838190317154D-07
     .933230160736D+00  .187437500000D+03  .124685682034D+01 -.792497296408D-08
     .399302346831D-09  .100000000000D+01  .228100000000D+04  .000000000000D+00
     .240000000000D+01  .000000000000D+00 -.107102096081D-07  .590000000000D+02
    -.720000000000D+04  .400000000000D+01
26 23  9 24  0  0  0.0  .226980540901D-03 -.193267624127D-11  .000000000000D+00
     .700000000000D+02  .323125000000D+02  .550094342209D-08  .750588993227D+00
     .189617276192D-05  .822749012150D-02  .702403485775D-05  .515375137711D+04
     .000000000000D+00  .577419996262D-07 -.204251906275D+01  .391155481339D-07
     .932736377608D+00  .226031250000D+03  .470535272186D+00 -.848642492223D-08
    -.514307137242D-09  .100000000000D+01  .228100000000D+04  .000000000000D+00
     .240000000000D+01  .000000000000D+00  .698491930962D-08  .700000000000D+02
    -.720000000000D+04  .400000000000D+01
14 23  9 24  0  0  0.0  .193884130567D-03  .112549969344D-10  .000000000000D+00
     .440000000000D+02  .225000000000D+02  .512199906611D-08  .159242394237D+01
     .129267573357D-05  .357082055416D-02  .772252678871D-05  .515367456627D+04
     .000000000000D+00  .149011611938D-07 -.194141042767D+01  .782310962677D-07
     .947474687701D+00  .223875000000D+03 -.293995263628D+01 -.825534386821D-08
    -.478234206089D-09  .100000000000D+01  .228100000000D+04  .000000000000D+00
     .240000000000D+01  .000000000000D+00 -.791624188423D-08  .440000000000D+02
    -.720000000000D+04  .400000000000D+01
17 23  9 24  0  0  0.0  .723844859749D-03  .113686837722D-12  .000000000000D+00
     .720000000000D+02  .776250000000D+02  .425553440295D-08 -.107714139865D+01
     .413320958614D-05  .137578280410D-01  .823661684990D-05  .515358706093D+04
     .000000000000D+00 -.219792127609D-06 -.861161485278D+00  .875443220139D-07
     .972546060710D+00  .231125000000D+03 -.139706210675D+01 -.810748056625D-08
    -.203937066226D-09  .100000000000D+01  .228100000000D+04  .000000000000D+00
     .240000000000D+01  .000000000000D+00 -.111758708954D-07  .720000000000D+02
    -.720000000000D+04  .400000000000D+01
25 23  9 24  0  0  0.0  .469314865768D-03  .193267624127D-11  .000000000000D+00
     .480000000000D+02  .307500000000D+02  .495342061557D-08  .148234712646D+01
     .150129199028D-05  .111856237054D-01  .784359872341D-05  .515367557335D+04
     .000000000000D+00 -.279396772385D-06 -.198458759898D+01 -.931322574615D-08
     .951929031871D+00  .225687500000D+03  .105185465630D+01 -.819391273793D-08
    -.370015412627D-09  .100000000000D+01  .228100000000D+04  .000000000000D+00
     .240000000000D+01  .000000000000D+00  .558793544769D-08  .480000000000D+02
    -.720000000000D+04  .400000000000D+01
13 23  9 24  0  0  0.0  .576098449528D-03  .443378667114D-11  .000000000000D+00
     .740000000000D+02 -.473750000000D+02  .425446292974D-08 -.144911539745D+01
    -.239908695221D-05  .752580829430D-02  .954605638981D-05  .515366786575D+04
     .000000000000D+00  .175088644028D-06  .235775665117D+01 -.186264514923D-08
     .970398593522D+00  .196656250000D+03  .940524543845D+00 -.773353641855D-08
     .388230457071D-09  .100000000000D+01  .228100000000D+04  .000000000000D+00
     .240000000000D+01  .000000000000D+00 -.116415321827D-07  .740000000000D+02
    -.720000000000D+04  .400000000000D+01
11 23  9 24  0  0  0.0 -.383198726922D-03 -.180762071977D-10  .000000000000D+00
     .135000000000D+03  .233750000000D+02  .425017703693D-08 -.169501184802D+01
     .136531889439D-05  .116847897880D-02  .348128378391D-05  .515360368919D+04
     .000000000000D+00 -.186264514923D-07  .173370788766D+00 -.651925802231D-07
     .966060075891D+00  .317437500000D+03 -.274355203081D+01 -.811962392921D-08
     .660741808263D-10  .100000000000D+01  .228100000000D+04  .000000000000D+00
     .240000000000D+01  .000000000000D+00 -.838190317154D-08  .903000000000D+03
    -.720000000000D+04  .400000000000D+01
28 23  9 24  0  0  0.0 -.141691416502D-04 -.579802872380D-11  .000000000000D+00
     .169000000000D+03  .105312500000D+02  .485627371186D-08  .974413621930D+00
     .642612576485D-06  .705895945430D-03  .788085162640D-05  .515374339867D+04
     .000000000000D+00 -.279396772385D-07 -.305185401093D+01  .223517417908D-07
     .961852533316D+00  .228281250000D+03  .157248571337D+01 -.796461747257D-08
     .269654089318D-09  .100000000000D+01  .228100000000D+04  .000000000000D+00
     .240000000000D+01  .000000000000D+00 -.977888703346D-08  .425000000000D+03
    -.720000000000D+04  .400000000000D+01
18 23  9 24  0  0  0.0 -.427123624831D-03 -.122781784739D-10  .000000000000D+00
     .109000000000D+03  .286875000000D+02  .416981654674D-08 -.311349426316D+01
     .146962702274D-05  .374435819685D-02  .317022204399D-05  .515365991592D+04
     .000000000000D+00 -.372529029846D-07  .142379982538D+00 -.745058059692D-07
     .974486008579D+00  .325968750000D+03 -.310054656040D+01 -.810390898891D-08
     .671456540289D-10  .100000000000D+01  .228100000000D+04  .000000000000D+00
     .240000000000D+01  .000000000000D+00 -.838190317154D-08  .365000000000D+03
    -.720000000000D+04  .400000000000D+01
23 23  9 24  0  0  0.0  .726291909814D-04  .545696821064D-11  .000000000000D+00
     .163000000000D+03 -.963437500000D+02  .407695553585D-08  .216730714232D+01
    -.498257577419D-05  .368226796854D-02  .496394932270D-05  .515368560982D+04
     .000000000000D+00 -.558793544769D-07  .114212380572D+01  .614672899246D-07
     .975312112567D+00  .288375000000D+03 -.308888928599D+01 -.801140513575D-08
    -.821462788651D-11  .100000000000D+01  .228100000000D+04  .000000000000D+00
     .240000000000D+01  .000000000000D+00 -.838190317154D-08  .675000000000D+03
    -.720000000000D+04  .400000000000D+01
